OBJECT_NAME,OBJECT_ID,EPOCH,MEAN_MOTION,ECCENTRICITY,INCLINATION,RA_OF_ASC_NODE,ARG_OF_PERICENTER,MEAN_ANOMALY,EPHEMERIS_TYPE,CLASSIFICATION_TYPE,NORAD_CAT_ID,ELEMENT_SET_NO,REV_AT_EPOCH,BSTAR,MEAN_MOTION_DOT,MEAN_MOTION_DDOT
LEMUR-1,2014-033AL,2026-07-11T21:11:51.417600,14.85331099,.0048047,97.7903,342.1444,358.8650,1.2448,0,U,40044,999,64913,.10759E-3,.888E-5,0
LEMUR-2-GREENBERG,2017-042N,2026-07-09T11:53:19.376160,15.32031511,.00071356,97.3831,11.0293,283.6729,76.3718,0,U,42837,999,49180,.3749711E-3,.11532E-3,0
LEMUR-2-ANDIS,2017-042P,2026-07-12T11:15:38.397024,15.35849981,.0007132,97.3674,14.2674,269.8003,90.2423,0,U,42838,999,49233,.36920282E-3,.12815E-3,0
LEMUR-2-MONSON,2017-042Q,2026-07-10T11:15:45.883584,15.28674858,.00051568,97.4089,11.9359,266.7916,93.2733,0,U,42839,999,49172,.34676682E-3,.96E-4,0
LEMUR-2-FURIAUS,2017-042R,2026-07-12T10:41:36.677760,15.31072029,.00062398,97.3775,11.8672,340.6601,19.4403,0,U,42840,999,49207,.35675373E-3,.10642E-3,0
LEMUR-2-PETERG,2017-042S,2026-07-12T14:22:22.194336,15.34966420,.00031307,97.3990,18.6904,231.4873,128.6090,0,U,42841,999,49233,.39230224E-3,.13235E-3,0
LEMUR-2-DEMBITZ,2017-042T,2026-07-12T11:09:59.302080,15.31053389,.00050816,97.3821,14.9283,286.7424,73.3260,0,U,42842,999,49221,.33095021E-3,.9858E-4,0
LEMUR-2-ZACHARY,2017-042W,2026-07-12T11:22:55.117920,15.52533794,.00024605,97.3575,25.6887,261.6834,98.4140,0,U,42845,999,49312,.52089587E-3,.31926E-3,0
LEMUR-2-AMANDA-SVANTE,2021-034B,2026-07-11T22:23:01.371264,15.35822625,.0004497,97.5758,271.8961,151.4014,208.7477,0,U,48269,999,28485,.60136E-3,.20915E-3,0
LEMUR-2-SPECIAL-K,2021-034F,2026-07-12T05:15:01.611360,15.73622953,.00063244,97.5632,282.0516,216.8117,143.2713,0,U,48273,999,28561,.12138298E-2,.172789E-2,0
LEMUR-2-EMBRIONOVIS,2023-084AQ,2026-07-12T09:11:06.054144,15.38181247,.00080652,97.6310,338.5644,217.3745,142.6939,0,U,56970,999,17155,.22270662E-3,.8294E-4,0
LEMUR-2-DEVERILL-M-T,2023-100F,2026-07-12T02:44:23.176896,15.40988276,.00047854,99.4465,239.0952,309.8311,50.2507,0,U,57391,999,16508,.39345739E-3,.16119E-3,0
LEMUR-2-BASS,2023-174D,2026-07-12T11:50:57.012288,15.43934169,.0007777,97.3850,278.5730,86.2691,273.9446,0,U,58259,999,14926,.25737092E-3,.1163E-3,0
LEMUR-2-JK0903EM1407,2023-174CJ,2026-07-11T23:04:50.737440,15.52951542,.00039286,97.3924,284.1520,44.2300,315.9266,0,U,58336,999,14957,.28285667E-3,.17525E-3,0
LEMUR-2-MJR092620,2023-174CN,2026-07-12T13:00:19.871424,15.45798027,.00055488,97.3981,284.0533,38.9821,321.1827,0,U,58340,999,14956,.27090209E-3,.13044E-3,0
LEMUR-2-NIMBUS2000,2024-022A,2026-07-12T12:59:35.500704,15.41041214,.00090269,97.4088,43.8762,37.5068,322.6807,0,U,58899,999,13617,.35694412E-3,.14682E-3,0
LEMUR-2-VALHALLA,2024-022B,2026-07-12T13:05:03.405984,15.40435155,.00094953,97.4084,43.8528,32.9596,327.2241,0,U,58900,999,13617,.26232161E-3,.10549E-3,0
LEMUR-2-CAEL,2024-022E,2026-07-12T12:47:42.015552,15.41796440,.00073905,97.4069,44.8221,18.8003,341.3516,0,U,58903,999,13624,.26918196E-3,.11322E-3,0
LEMUR-2-JOHNNYTRUONG,2024-043BA,2026-07-12T09:36:00.647136,15.62400420,.00042238,97.5383,346.7036,101.1525,259.0207,0,U,59146,999,13197,.3250947E-3,.28738E-3,0
LEMUR-2-TOMATOKECHUP,2024-149D,2026-07-11T19:02:16.185696,15.36537067,.00031228,97.3803,274.9096,128.0995,232.0531,0,U,60471,999,10594,.18430322E-3,.649E-4,0
LEMUR-2-STELLA,2024-149BT,2026-07-11T18:22:22.824480,15.12328256,.00011848,97.6740,275.3352,113.7387,246.3968,0,U,60533,999,10421,.37866771E-3,.6496E-4,0
LEMUR-2-MARHISYAM,2024-149BW,2026-07-12T11:35:49.090848,15.11746387,.00027382,97.6886,276.5309,74.5269,285.6263,0,U,60536,999,10430,.35250603E-3,.5945E-4,0
LEMUR-2-AHMED-ASRAR,2024-149DN,2026-07-11T18:21:43.523712,15.13261688,.00007717,97.7007,277.9980,214.4074,145.7107,0,U,60576,999,10428,.37730328E-3,.6643E-4,0
LEMUR-2-LLOYD,2024-149DP,2026-07-12T03:59:10.663296,15.09716355,.00047525,97.6751,274.3148,78.6462,281.5300,0,U,60577,999,10416,.38904839E-3,.621E-4,0
LEMUR-2-SQUIRRELCOMM,2024-149DQ,2026-07-12T00:24:57.912480,15.07428709,.00042727,97.6718,273.8533,342.4944,17.6135,0,U,60578,999,10414,.21585947E-3,.3206E-4,0
LEMUR-2-SIERRINI,2024-149DR,2026-07-12T01:09:24.779808,15.11469800,.00063696,97.6843,275.7574,98.6701,261.5251,0,U,60579,999,10421,.43429045E-3,.7287E-4,0
LEMUR-2-WILSON,2025-009CP,2026-07-12T10:59:45.998592,14.95271893,.00022264,97.7023,271.4799,339.7930,20.3202,0,U,62694,999,8113,.80105608E-4,.825E-5,0
LEMUR-2-STAR-FOX,2025-009CR,2026-07-12T04:43:59.553120,15.02819173,.00026162,97.6920,274.6272,53.8668,306.2799,0,U,62696,999,8131,.258913E-3,.3406E-4,0
LEMUR-2-ARIANNA,2025-009CU,2026-07-11T19:06:30.499776,15.02817181,.00029525,97.6857,273.9837,61.1158,299.0362,0,U,62699,999,8125,.27573678E-3,.3632E-4,0
LEMUR-2-ALISIA,2025-009DB,2026-07-12T04:02:56.519808,15.03147322,.00039042,97.6972,275.1716,138.4642,221.6881,0,U,62706,999,10391,.37072191E-3,.4948E-4,0
